stk.v.5.0 
BEGIN Ephemeris 
NumberOfEphemerisPoints 144
ScenarioEpoch 	10 Aug 2022 23:03:09
DistanceUnit 	 Kilometers 
CentralBody Earth
CoordinateSystem Fixed
EphemerisTimePosVel
4.49210540640000e+05 1.02366422634360e+03 -3.97394655710341e+03 5.43499627276508e+03 7.47780531054136e+00 1.60389580413355e+00 -2.34280988215779e-01 
4.49510540640000e+05 3.09379215244054e+03 -3.34719048958340e+03 5.06062539021471e+03 6.74132613897120e+00 2.84238289931788e+00 -2.23895887355723e+00 
4.49810540640000e+05 4.85167113456958e+03 -2.42935964586398e+03 4.11735060922935e+03 5.29854915104647e+00 3.81026616756551e+00 -3.99184199510807e+00 
4.50110540640000e+05 6.11133904531651e+03 -1.30536522594635e+03 2.71103862620094e+03 3.29740945066602e+00 4.42683857954373e+00 -5.29587143456141e+00 
4.50410540640000e+05 6.73842116683667e+03 -7.62373508018022e+01 9.99647944517983e+02 9.45520060048281e-01 4.64294908164206e+00 -6.00444774317626e+00 
4.50710540640000e+05 6.66472167140062e+03 1.14957954312505e+03 -8.24468249584119e+02 -1.51161938298999e+00 4.44437146444191e+00 -6.03791193267355e+00 
4.51010540640000e+05 5.89582282199688e+03 2.26530534073015e+03 -2.55616856853473e+03 -3.81657150195828e+00 3.85230724112061e+00 -5.39250097799244e+00 
4.51310540640000e+05 4.51080463297843e+03 3.17458597085618e+03 -4.00061801154082e+03 -5.72728603341914e+00 2.92108729090475e+00 -4.14077099834696e+00 
4.51610540640000e+05 2.65405448023209e+03 3.79929150540533e+03 -4.99526009162962e+03 -7.04285808332663e+00 1.73332550034022e+00 -2.42344061082340e+00 
4.51910540640000e+05 5.20013467022233e+02 4.08578702750887e+03 -5.42816635060525e+03 -7.62493818719626e+00 3.92937690099065e-01 -4.33571519761807e-01 
4.52210540640000e+05 -1.66750008144204e+03 4.00922925863790e+03 -5.25066771593835e+03 -7.41247864855434e+00 -9.83433454975617e-01 1.60513524366405e+00 
4.52510540640000e+05 -3.67913786856614e+03 3.57558470457953e+03 -4.48282660186599e+03 -6.42822100178747e+00 -2.27595389797596e+00 3.46348762014264e+00 
4.52810540640000e+05 -5.30443400639414e+03 2.82122502494051e+03 -3.21113430333151e+03 -4.77622503486648e+00 -3.37140333386373e+00 4.93256833468098e+00 
4.53110540640000e+05 -6.37412424029554e+03 1.81012256651574e+03 -1.57871318383647e+03 -2.63071205651188e+00 -4.17253806893640e+00 5.84722166601242e+00 
4.53410540640000e+05 -6.77796430682641e+03 6.28833803154101e+02 2.30842320806197e+02 -2.17436876175771e-01 -4.60631680234108e+00 6.10462067157968e+00 
4.53710540640000e+05 -6.47615694083857e+03 -6.20387851345262e+02 2.01413904355383e+03 2.21038949739607e+00 -4.63035087548728e+00 5.67582735598026e+00 
4.54010540640000e+05 -5.50321311451492e+03 -1.82787287340761e+03 3.57083396214927e+03 4.39901993494597e+00 -4.23703812292908e+00 4.60904607896859e+00 
4.54310540640000e+05 -3.96390096737810e+03 -2.88562164812792e+03 4.72609720837054e+03 6.12102984953678e+00 -3.45497833201680e+00 3.02420448559670e+00 
4.54610540640000e+05 -2.02178234812083e+03 -3.69652515519972e+03 5.35019000732630e+03 7.19923094757729e+00 -2.34744611632253e+00 1.09947127575179e+00 
4.54910540640000e+05 1.18386321481065e+02 -4.18300302529081e+03 5.37299009291444e+03 7.52509164430200e+00 -1.00790761557163e+00 -9.48773464451643e-01 
4.55210540640000e+05 2.23248059177574e+03 -4.29433723895655e+03 4.79185789100463e+03 7.06972631323831e+00 4.47199804542190e-01 -2.89026370662881e+00 
4.55510540640000e+05 4.10072585827531e+03 -4.01202559981335e+03 3.67196663463555e+03 5.88633263706461e+00 1.88796620912051e+00 -4.50673416612626e+00 
4.55810540640000e+05 5.53078567213879e+03 -3.35258257564944e+03 2.13904473889239e+03 4.10388869315370e+00 3.18210099291186e+00 -5.61645810755700e+00 
4.56110540640000e+05 6.37777613603545e+03 -2.36738020149177e+03 3.65316106774835e+02 1.91286585012928e+00 4.20674200720679e+00 -6.09467763375822e+00 
4.56410540640000e+05 6.55909534239564e+03 -1.13934609543723e+03 -1.44981371725302e+03 -4.55433573823929e-01 4.85997375362353e+00 -5.88762948663460e+00 
4.56710540640000e+05 6.06251735865447e+03 2.23392202060552e+02 -3.10217511686594e+03 -2.75363620156445e+00 5.07099399404234e+00 -5.01858941903066e+00 
4.57010540640000e+05 4.94673295251524e+03 1.59652902111571e+03 -4.40583541184054e+03 -4.74446394440517e+00 4.80791080546421e+00 -3.58525561002971e+00 
4.57310540640000e+05 3.33434608741606e+03 2.85058703671980e+03 -5.21407655000433e+03 -6.22549967324832e+00 4.08229721518761e+00 -1.74876537729614e+00 
4.57610540640000e+05 1.39816252127562e+03 3.86297340436594e+03 -5.43595847330075e+03 -7.04993490274193e+00 2.94987495373815e+00 2.84419981362282e-01 
4.57910540640000e+05 -6.57663188484480e+02 4.52997299181875e+03 -5.04657595046083e+03 -7.14115244091641e+00 1.50702798760703e+00 2.28572572710536e+00 
4.58210540640000e+05 -2.61951111703311e+03 4.77749388529332e+03 -4.08984133385117e+03 -6.49969178777612e+00 -1.16765416167361e-01 4.03016037570961e+00 
4.58510540640000e+05 -4.28680304634504e+03 4.56943082773676e+03 -2.67348791816643e+03 -5.20198491850723e+00 -1.77008156563923e+00 5.32160979955134e+00 
4.58810540640000e+05 -5.49271042991013e+03 3.91268779206914e+03 -9.56881839375001e+02 -3.39114094030541e+00 -3.29338693423042e+00 6.01488510458819e+00 
4.59110540640000e+05 -6.12089722580641e+03 2.85818820020402e+03 8.66953824511128e+02 -1.26090206282219e+00 -4.53433464442087e+00 6.03204546093206e+00 
4.59410540640000e+05 -6.11661955570762e+03 1.49757359664487e+03 2.59305578376617e+03 9.65400547030989e-01 -5.36306779192871e+00 5.37116067026953e+00 
4.59710540640000e+05 -5.49115622882956e+03 -4.42873637395007e+01 4.02752936154774e+03 3.05856809370446e+00 -5.68598396553699e+00 4.10652830423428e+00 
4.60010540640000e+05 -4.31927936526593e+03 -1.62042901663249e+03 5.00927740894261e+03 4.80737617086467e+00 -5.45648094847907e+00 2.38032107269654e+00 
4.60310540640000e+05 -2.73020981287960e+03 -3.07561258979295e+03 5.42803677586279e+03 6.04002737059556e+00 -4.68143083607601e+00 3.86603540964412e-01 
4.60610540640000e+05 -8.93162676870032e+02 -4.26157725310375e+03 5.23672724759917e+03 6.64101864872298e+00 -3.42250512790087e+00 -1.65048492455316e+00 
4.60910540640000e+05 1.00088718996549e+03 -5.05223823548294e+03 4.45674531100737e+03 6.56176864358309e+00 -1.79196554537380e+00 -3.50192837438059e+00 
4.61210540640000e+05 2.75924601674081e+03 -5.35727436855286e+03 3.17560726648850e+03 5.82405327248983e+00 5.69021309951594e-02 -4.95958094861839e+00 
4.61510540640000e+05 4.20723826260547e+03 -5.13262446571118e+03 1.53718544613986e+03 4.51608271377787e+00 1.94395857365211e+00 -5.85956752195087e+00 
4.61810540640000e+05 5.20561025949198e+03 -4.38664977720548e+03 -2.74397581190243e+02 2.78183238173933e+00 3.67970773593900e+00 -6.10070743165454e+00 
4.62110540640000e+05 5.66385724785935e+03 -3.18110831005429e+03 -2.05543619279065e+03 8.04930974314154e-01 5.08442746522381e+00 -5.65588985607650e+00 
4.62410540640000e+05 5.54819455837633e+03 -1.62659702166315e+03 -3.60556097663441e+03 -1.21106129953286e+00 6.00698975776002e+00 -4.57512188478106e+00 
4.62710540640000e+05 4.88348621620412e+03 1.27298430854376e+02 -4.75032554104797e+03 -3.06383317165532e+00 6.34137414932614e+00 -2.97990664159880e+00 
4.63010540640000e+05 3.74910092648466e+03 1.90631340252271e+03 -5.36089512462524e+03 -4.57273085235213e+00 6.03904028219019e+00 -1.04958359335635e+00 
4.63310540640000e+05 2.26931203808401e+03 3.52890939069782e+03 -5.36859006234459e+03 -5.59632277876383e+00 5.11569526211164e+00 9.98833247140382e-01 
4.63610540640000e+05 5.99420139654624e+02 4.82501113741182e+03 -4.77262318231700e+03 -6.04541932976662e+00 3.65153642565315e+00 2.93505265233209e+00 
4.63910540640000e+05 -1.09080969948159e+03 5.65410018986654e+03 -3.64015424422059e+03 -5.89038073057226e+00 1.78471782524206e+00 4.54139636043086e+00 
4.64210540640000e+05 -2.63458329192483e+03 5.92069717621195e+03 -2.09867020839519e+03 -5.16218102727152e+00 -3.01489759505678e-01 5.63727151286753e+00 
4.64510540640000e+05 -3.88456173641604e+03 5.58549663896266e+03 -3.21578306415557e+02 -3.94735926026180e+00 -2.39667805197555e+00 6.09947398828969e+00 
4.64810540640000e+05 -4.72675962625060e+03 4.67084898606322e+03 1.49133589526001e+03 -2.37760937850996e+00 -4.28465760997968e+00 5.87603987540253e+00 
4.65110540640000e+05 -5.09057402554029e+03 3.25986539756087e+03 3.13636798156775e+03 -6.15274522792449e-01 -5.76600672257328e+00 4.99208770458842e+00 
4.65410540640000e+05 -4.95412513142314e+03 1.48908894524231e+03 4.42874726508291e+03 1.16362989639875e+00 -6.67943157247205e+00 3.54699462195969e+00 
4.65710540640000e+05 -4.34460568576523e+03 -4.64642462285689e+02 5.22333458921989e+03 2.78706612954369e+00 -6.91961469670124e+00 1.70322406714010e+00 
4.66010540640000e+05 -3.33384645987179e+03 -2.40188837144649e+03 5.43087121862378e+03 4.10351832681009e+00 -6.44954383864372e+00 -3.31938931286953e-01 
4.66310540640000e+05 -2.02975956925696e+03 -4.12109092905207e+03 5.02798196284068e+03 4.99585222875837e+00 -5.30585786000925e+00 -2.32969149139058e+00 
4.66610540640000e+05 -5.64681826067887e+02 -5.43975085370261e+03 4.05982186970361e+03 5.39126031607128e+00 -3.59646669773910e+00 -4.06543587813757e+00 
4.66910540640000e+05 9.18118557304524e+02 -6.21406062233183e+03 2.63506077341401e+03 5.26651519689701e+00 -1.49052339705397e+00 -5.34402998545429e+00 
4.67210540640000e+05 2.27839996355717e+03 -6.35485949938427e+03 9.13742870453815e+02 4.64825760559611e+00 7.98340397415617e-01 -6.02172649650593e+00 
4.67510540640000e+05 3.39202379828263e+03 -5.83810488120908e+03 -9.10647329774667e+02 3.60854498864877e+00 3.03385071993695e+00 -6.02233405800300e+00 
4.67810540640000e+05 4.16195432194091e+03 -4.70859413318106e+03 -2.63292217286180e+03 2.25633171165894e+00 4.98174687004555e+00 -5.34578338097289e+00 
4.68110540640000e+05 4.52624464255285e+03 -3.07637333716622e+03 -4.05929403127143e+03 7.25901295888566e-01 6.43465108637894e+00 -4.06813516874477e+00 
END Ephemeris